ORBCOMM-X               
1 21576U 91050C   25252.19303717  .00000318  00000+0  10715-3 0  9991
2 21576  98.3360 317.0536 0002472 302.1989  57.8962 14.43321036794233
ORBCOMM FM01            
1 23545U 95017A   25252.22390238  .00006111  00000+0  62549-3 0  9993
2 23545  69.9620 224.4479 0004808 229.4221 130.6516 14.90984567625038
ORBCOMM FM02            
1 23546U 95017B   25252.24702365  .00008070  00000+0  80067-3 0  9995
2 23546  69.9625 243.4836 0005848 222.4931 137.5773 14.92077680624691
ORBCOMM FM08            
1 25112U 97084A   25252.26640582  .00001355  00000+0  41629-3 0  9996
2 25112  45.0143 324.1785 0007278 296.2818  63.7286 14.46067088453547
ORBCOMM FM10            
1 25113U 97084B   25252.26014351  .00001277  00000+0  39658-3 0  9998
2 25113  45.0156 326.7388 0006637 266.2942  93.7151 14.45843325628680
ORBCOMM FM11            
1 25114U 97084C   25252.21018605  .00001328  00000+0  41274-3 0  9994
2 25114  45.0140 327.7644 0007412 268.5905  91.4098 14.45592296453630
ORBCOMM FM12            
1 25115U 97084D   25251.89504148  .00001254  00000+0  39190-3 0  9992
2 25115  45.0151 329.0185 0006526 263.2123  96.7986 14.45607849453384
ORBCOMM FM09            
1 25116U 97084E   25252.21117429  .00001099  00000+0  34950-3 0  9998
2 25116  45.0154 328.5193 0007890 258.7877 101.2088 14.45474096453630
